{
  "type": "FeatureCollection",
  "features": [
    {
      "type": "Feature",
      "properties": {
        "norad_id": 34680,
        "name": "COSMOS 2251 DEB",
        "group": "cosmos-2251-debris",
        "lat": 26.31102695059998,
        "lon": 140.5987043565211,
        "alt_km": 694.4356841971885,
        "timestamp": "2025-12-11T08:58:27.520282+00:00",
        "meta_object_name": "COSMOS 2251 DEB",
        "meta_object_id": "1993-036YA",
        "meta_epoch": "2025-12-11T02:49:08.154336",
        "meta_mean_motion": 14.60592379,
        "meta_eccentricity": 0.0006798,
        "meta_inclination": 74.0426,
        "meta_ra_of_asc_node": 132.9545,
        "meta_arg_of_pericenter": 229.501,
        "meta_mean_anomaly": 250.0007,
        "meta_ephemeris_type": 0,
        "meta_classification_type": "U",
        "meta_norad_cat_id": 34680,
        "meta_element_set_no": 999,
        "meta_rev_at_epoch": 88304,
        "meta_bstar": 0.0018735,
        "meta_mean_motion_dot": 9.094e-05,
        "meta_mean_motion_ddot": 0,
        "tle_line1": "1 34680U 93036YA  25345.11745549  .00009094  00000+0  18735-2 0  9994",
        "tle_line2": "2 34680  74.0426 132.9545 0006798 229.5010 250.0007 14.60592379883047"
      },
      "geometry": {
        "type": "Point",
        "coordinates": [
          140.5987043565211,
          26.31102695059998
        ]
      }
    },
    {
      "type": "Feature",
      "properties": {
        "norad_id": 34681,
        "name": "COSMOS 2251 DEB",
        "group": "cosmos-2251-debris",
        "lat": 33.18002092539559,
        "lon": 102.32761914333386,
        "alt_km": 633.2767797608085,
        "timestamp": "2025-12-11T08:58:27.520292+00:00",
        "meta_object_name": "COSMOS 2251 DEB",
        "meta_object_id": "1993-036YB",
        "meta_epoch": "2025-12-10T15:17:37.078944",
        "meta_mean_motion": 14.83133143,
        "meta_eccentricity": 0.0025623,
        "meta_inclination": 74.0627,
        "meta_ra_of_asc_node": 294.5519,
        "meta_arg_of_pericenter": 351.5116,
        "meta_mean_anomaly": 181.7753,
        "meta_ephemeris_type": 0,
        "meta_classification_type": "U",
        "meta_norad_cat_id": 34681,
        "meta_element_set_no": 999,
        "meta_rev_at_epoch": 89239,
        "meta_bstar": 0.0025772,
        "meta_mean_motion_dot": 0.00021167,
        "meta_mean_motion_ddot": 0,
        "tle_line1": "1 34681U 93036YB  25344.63723471  .00021167  00000+0  25772-2 0  9995",
        "tle_line2": "2 34681  74.0627 294.5519 0025623 351.5116 181.7753 14.83133143892399"
      },
      "geometry": {
        "type": "Point",
        "coordinates": [
          102.32761914333386,
          33.18002092539559
        ]
      }
    },
    {
      "type": "Feature",
      "properties": {
        "norad_id": 34682,
        "name": "COSMOS 2251 DEB",
        "group": "cosmos-2251-debris",
        "lat": 17.711642334731906,
        "lon": 90.83355770172041,
        "alt_km": 709.1204324314422,
        "timestamp": "2025-12-11T08:58:27.520303+00:00",
        "meta_object_name": "COSMOS 2251 DEB",
        "meta_object_id": "1993-036YC",
        "meta_epoch": "2025-12-10T17:08:28.653792",
        "meta_mean_motion": 14.58871992,
        "meta_eccentricity": 0.00184327,
        "meta_inclination": 74.0396,
        "meta_ra_of_asc_node": 86.8453,
        "meta_arg_of_pericenter": 219.9592,
        "meta_mean_anomaly": 295.1845,
        "meta_ephemeris_type": 0,
        "meta_classification_type": "U",
        "meta_norad_cat_id": 34682,
        "meta_element_set_no": 999,
        "meta_rev_at_epoch": 88656,
        "meta_bstar": 0.0013701333,
        "meta_mean_motion_dot": 6.407e-05,
        "meta_mean_motion_ddot": 0,
        "tle_line1": "1 34682U 93036YC  25344.71422053  .00006407  00000+0  13701-2 0  9996",
        "tle_line2": "2 34682  74.0396  86.8453 0018432 219.9592 295.1845 14.58871992886564"
      },
      "geometry": {
        "type": "Point",
        "coordinates": [
          90.83355770172041,
          17.711642334731906
        ]
      }
    },
    {
      "type": "Feature",
      "properties": {
        "norad_id": 34683,
        "name": "COSMOS 2251 DEB",
        "group": "cosmos-2251-debris",
        "lat": 34.92956502807601,
        "lon": -96.64348962226524,
        "alt_km": 670.9220747275722,
        "timestamp": "2025-12-11T08:58:27.520313+00:00",
        "meta_object_name": "COSMOS 2251 DEB",
        "meta_object_id": "1993-036YD",
        "meta_epoch": "2025-12-10T14:20:08.537856",
        "meta_mean_motion": 14.64436522,
        "meta_eccentricity": 0.0018349,
        "meta_inclination": 74.029,
        "meta_ra_of_asc_node": 96.3863,
        "meta_arg_of_pericenter": 211.2533,
        "meta_mean_anomaly": 159.7007,
        "meta_ephemeris_type": 0,
        "meta_classification_type": "U",
        "meta_norad_cat_id": 34683,
        "meta_element_set_no": 999,
        "meta_rev_at_epoch": 88317,
        "meta_bstar": 0.002307,
        "meta_mean_motion_dot": 0.0001223,
        "meta_mean_motion_ddot": 0,
        "tle_line1": "1 34683U 93036YD  25344.59732104  .00012230  00000+0  23070-2 0  9995",
        "tle_line2": "2 34683  74.0290  96.3863 0018349 211.2533 159.7007 14.64436522883178"
      },
      "geometry": {
        "type": "Point",
        "coordinates": [
          -96.64348962226524,
          34.92956502807601
        ]
      }
    },
    {
      "type": "Feature",
      "properties": {
        "norad_id": 34685,
        "name": "COSMOS 2251 DEB",
        "group": "cosmos-2251-debris",
        "lat": -30.08819233413087,
        "lon": 141.82828951808426,
        "alt_km": 703.9903222753992,
        "timestamp": "2025-12-11T08:58:27.520324+00:00",
        "meta_object_name": "COSMOS 2251 DEB",
        "meta_object_id": "1993-036YF",
        "meta_epoch": "2025-12-10T22:17:02.140800",
        "meta_mean_motion": 14.57478056,
        "meta_eccentricity": 0.0014303,
        "meta_inclination": 74.0293,
        "meta_ra_of_asc_node": 152.2261,
        "meta_arg_of_pericenter": 256.3395,
        "meta_mean_anomaly": 255.9794,
        "meta_ephemeris_type": 0,
        "meta_classification_type": "U",
        "meta_norad_cat_id": 34685,
        "meta_element_set_no": 999,
        "meta_rev_at_epoch": 88505,
        "meta_bstar": 0.0016053,
        "meta_mean_motion_dot": 7.281e-05,
        "meta_mean_motion_ddot": 0,
        "tle_line1": "1 34685U 93036YF  25344.92849700  .00007281  00000+0  16053-2 0  9998",
        "tle_line2": "2 34685  74.0293 152.2261 0014303 256.3395 255.9794 14.57478056885050"
      },
      "geometry": {
        "type": "Point",
        "coordinates": [
          141.82828951808426,
          -30.08819233413087
        ]
      }
    },
    {
      "type": "Feature",
      "properties": {
        "norad_id": 34689,
        "name": "COSMOS 2251 DEB",
        "group": "cosmos-2251-debris",
        "lat": 66.9770272286837,
        "lon": -92.08930202092697,
        "alt_km": 993.758536848627,
        "timestamp": "2025-12-11T08:58:27.520335+00:00",
        "meta_object_name": "COSMOS 2251 DEB",
        "meta_object_id": "1993-036YK",
        "meta_epoch": "2025-12-09T15:43:43.204224",
        "meta_mean_motion": 14.04380278,
        "meta_eccentricity": 0.022877,
        "meta_inclination": 74.0977,
        "meta_ra_of_asc_node": 228.7634,
        "meta_arg_of_pericenter": 298.3373,
        "meta_mean_anomaly": 87.6678,
        "meta_ephemeris_type": 0,
        "meta_classification_type": "U",
        "meta_norad_cat_id": 34689,
        "meta_element_set_no": 999,
        "meta_rev_at_epoch": 84298,
        "meta_bstar": 0.0057121,
        "meta_mean_motion_dot": 0.00011476,
        "meta_mean_motion_ddot": 0,
        "tle_line1": "1 34689U 93036YK  25343.65536116  .00011476  00000+0  57121-2 0  9997",
        "tle_line2": "2 34689  74.0977 228.7634 0228770 298.3373  87.6678 14.04380278842989"
      },
      "geometry": {
        "type": "Point",
        "coordinates": [
          -92.08930202092697,
          66.9770272286837
        ]
      }
    },
    {
      "type": "Feature",
      "properties": {
        "norad_id": 34721,
        "name": "COSMOS 2251 DEB",
        "group": "cosmos-2251-debris",
        "lat": 41.00056769720323,
        "lon": 134.1017151604657,
        "alt_km": 1005.8014784058041,
        "timestamp": "2025-12-11T08:58:27.520345+00:00",
        "meta_object_name": "COSMOS 2251 DEB",
        "meta_object_id": "1993-036YP",
        "meta_epoch": "2025-12-10T17:44:16.747872",
        "meta_mean_motion": 13.96837353,
        "meta_eccentricity": 0.0223786,
        "meta_inclination": 73.9238,
        "meta_ra_of_asc_node": 329.7201,
        "meta_arg_of_pericenter": 269.0318,
        "meta_mean_anomaly": 278.609,
        "meta_ephemeris_type": 0,
        "meta_classification_type": "U",
        "meta_norad_cat_id": 34721,
        "meta_element_set_no": 999,
        "meta_rev_at_epoch": 85121,
        "meta_bstar": 0.0024611737,
        "meta_mean_motion_dot": 4.204e-05,
        "meta_mean_motion_ddot": 0,
        "tle_line1": "1 34721U 93036YP  25344.73908273  .00004204  00000+0  24612-2 0  9991",
        "tle_line2": "2 34721  73.9238 329.7201 0223786 269.0318 278.6090 13.96837353851219"
      },
      "geometry": {
        "type": "Point",
        "coordinates": [
          134.1017151604657,
          41.00056769720323
        ]
      }
    }
  ]
}